{
  "type": "FeatureCollection",
  "features": [
    {
      "type": "Feature",
      "properties": {
        "norad_id": 35000,
        "name": "COSMOS 2251 DEB",
        "group": "cosmos-2251-debris",
        "lat": -29.390133960499483,
        "lon": -167.14781472854872,
        "alt_km": 318.76278747399374,
        "timestamp": "2025-12-10T21:43:22.486825+00:00",
        "meta_object_name": "COSMOS 2251 DEB",
        "meta_object_id": "1993-036AFY",
        "meta_epoch": "2025-12-10T00:39:45.535104",
        "meta_mean_motion": 15.84722247,
        "meta_eccentricity": 0.00096992,
        "meta_inclination": 73.9939,
        "meta_ra_of_asc_node": 204.1935,
        "meta_arg_of_pericenter": 175.3945,
        "meta_mean_anomaly": 184.7377,
        "meta_ephemeris_type": 0,
        "meta_classification_type": "U",
        "meta_norad_cat_id": 35000,
        "meta_element_set_no": 999,
        "meta_rev_at_epoch": 88472,
        "meta_bstar": 0.007821664,
        "meta_mean_motion_dot": 0.0209211,
        "meta_mean_motion_ddot": 0,
        "tle_line1": "1 35000U 93036AFY 25344.02761036  .02092110  00000+0  78217-2 0  9993",
        "tle_line2": "2 35000  73.9939 204.1935 0009699 175.3945 184.7377 15.84722247884729"
      },
      "geometry": {
        "type": "Point",
        "coordinates": [
          -167.14781472854872,
          -29.390133960499483
        ]
      }
    },
    {
      "type": "Feature",
      "properties": {
        "norad_id": 35012,
        "name": "COSMOS 2251 DEB",
        "group": "cosmos-2251-debris",
        "lat": -54.06201939283137,
        "lon": -41.55379110706615,
        "alt_km": 691.6747303915627,
        "timestamp": "2025-12-10T21:43:22.486835+00:00",
        "meta_object_name": "COSMOS 2251 DEB",
        "meta_object_id": "1993-036AFZ",
        "meta_epoch": "2025-12-10T08:59:46.936320",
        "meta_mean_motion": 14.45543822,
        "meta_eccentricity": 0.00816553,
        "meta_inclination": 74.0197,
        "meta_ra_of_asc_node": 116.1499,
        "meta_arg_of_pericenter": 256.7977,
        "meta_mean_anomaly": 102.4062,
        "meta_ephemeris_type": 0,
        "meta_classification_type": "U",
        "meta_norad_cat_id": 35012,
        "meta_element_set_no": 999,
        "meta_rev_at_epoch": 87527,
        "meta_bstar": 0.00029743364,
        "meta_mean_motion_dot": 1.064e-05,
        "meta_mean_motion_ddot": 0,
        "tle_line1": "1 35012U 93036AFZ 25344.37484880  .00001064  00000+0  29743-3 0  9990",
        "tle_line2": "2 35012  74.0197 116.1499 0081655 256.7977 102.4062 14.45543822875272"
      },
      "geometry": {
        "type": "Point",
        "coordinates": [
          -41.55379110706615,
          -54.06201939283137
        ]
      }
    },
    {
      "type": "Feature",
      "properties": {
        "norad_id": 35014,
        "name": "COSMOS 2251 DEB",
        "group": "cosmos-2251-debris",
        "lat": 29.88472136771843,
        "lon": -142.36008616593736,
        "alt_km": 641.5023361817675,
        "timestamp": "2025-12-10T21:43:22.486845+00:00",
        "meta_object_name": "COSMOS 2251 DEB",
        "meta_object_id": "1993-036AGB",
        "meta_epoch": "2025-12-10T11:17:04.408224",
        "meta_mean_motion": 14.75108648,
        "meta_eccentricity": 0.0007489,
        "meta_inclination": 73.9993,
        "meta_ra_of_asc_node": 47.9831,
        "meta_arg_of_pericenter": 224.1256,
        "meta_mean_anomaly": 135.932,
        "meta_ephemeris_type": 0,
        "meta_classification_type": "U",
        "meta_norad_cat_id": 35014,
        "meta_element_set_no": 999,
        "meta_rev_at_epoch": 71303,
        "meta_bstar": 0.0024781418,
        "meta_mean_motion_dot": 0.00016732,
        "meta_mean_motion_ddot": 0,
        "tle_line1": "1 35014U 93036AGB 25344.47018991  .00016732  00000+0  24781-2 0  9993",
        "tle_line2": "2 35014  73.9993  47.9831 0007489 224.1256 135.9320 14.75108648713038"
      },
      "geometry": {
        "type": "Point",
        "coordinates": [
          -142.36008616593736,
          29.88472136771843
        ]
      }
    },
    {
      "type": "Feature",
      "properties": {
        "norad_id": 35015,
        "name": "COSMOS 2251 DEB",
        "group": "cosmos-2251-debris",
        "lat": 3.5330603333496207,
        "lon": -120.80757092918783,
        "alt_km": 750.3008446328531,
        "timestamp": "2025-12-10T21:43:22.486855+00:00",
        "meta_object_name": "COSMOS 2251 DEB",
        "meta_object_id": "1993-036AGC",
        "meta_epoch": "2025-12-08T23:19:05.687904",
        "meta_mean_motion": 14.46841193,
        "meta_eccentricity": 0.0074204,
        "meta_inclination": 73.9478,
        "meta_ra_of_asc_node": 241.8046,
        "meta_arg_of_pericenter": 111.6456,
        "meta_mean_anomaly": 265.9615,
        "meta_ephemeris_type": 0,
        "meta_classification_type": "U",
        "meta_norad_cat_id": 35015,
        "meta_element_set_no": 999,
        "meta_rev_at_epoch": 65386,
        "meta_bstar": 0.00095869,
        "meta_mean_motion_dot": 3.57e-05,
        "meta_mean_motion_ddot": 0,
        "tle_line1": "1 35015U 93036AGC 25342.97159361  .00003570  00000+0  95869-3 0  9996",
        "tle_line2": "2 35015  73.9478 241.8046 0074204 111.6456 265.9615 14.46841193653863"
      },
      "geometry": {
        "type": "Point",
        "coordinates": [
          -120.80757092918783,
          3.5330603333496207
        ]
      }
    },
    {
      "type": "Feature",
      "properties": {
        "norad_id": 35016,
        "name": "COSMOS 2251 DEB",
        "group": "cosmos-2251-debris",
        "lat": 69.23910120506002,
        "lon": 68.30843222994777,
        "alt_km": 797.566504000345,
        "timestamp": "2025-12-10T21:43:22.486866+00:00",
        "meta_object_name": "COSMOS 2251 DEB",
        "meta_object_id": "1993-036AGD",
        "meta_epoch": "2025-12-10T15:22:20.129664",
        "meta_mean_motion": 14.35053714,
        "meta_eccentricity": 0.01146298,
        "meta_inclination": 73.9299,
        "meta_ra_of_asc_node": 298.2962,
        "meta_arg_of_pericenter": 215.7196,
        "meta_mean_anomaly": 322.3039,
        "meta_ephemeris_type": 0,
        "meta_classification_type": "U",
        "meta_norad_cat_id": 35016,
        "meta_element_set_no": 999,
        "meta_rev_at_epoch": 86752,
        "meta_bstar": 0.00053949447,
        "meta_mean_motion_dot": 1.629e-05,
        "meta_mean_motion_ddot": 0,
        "tle_line1": "1 35016U 93036AGD 25344.64051076  .00001629  00000+0  53949-3 0  9993",
        "tle_line2": "2 35016  73.9299 298.2962 0114629 215.7196 322.3039 14.35053714867521"
      },
      "geometry": {
        "type": "Point",
        "coordinates": [
          68.30843222994777,
          69.23910120506002
        ]
      }
    },
    {
      "type": "Feature",
      "properties": {
        "norad_id": 35018,
        "name": "COSMOS 2251 DEB",
        "group": "cosmos-2251-debris",
        "lat": -65.57764109143005,
        "lon": 73.74126829782237,
        "alt_km": 1025.3194361515407,
        "timestamp": "2025-12-10T21:43:22.486876+00:00",
        "meta_object_name": "COSMOS 2251 DEB",
        "meta_object_id": "1993-036AGF",
        "meta_epoch": "2025-12-10T15:02:04.011648",
        "meta_mean_motion": 13.67108377,
        "meta_eccentricity": 0.03484957,
        "meta_inclination": 73.9756,
        "meta_ra_of_asc_node": 113.4623,
        "meta_arg_of_pericenter": 23.1067,
        "meta_mean_anomaly": 338.5295,
        "meta_ephemeris_type": 0,
        "meta_classification_type": "U",
        "meta_norad_cat_id": 35018,
        "meta_element_set_no": 999,
        "meta_rev_at_epoch": 83157,
        "meta_bstar": 0.0010454482,
        "meta_mean_motion_dot": 1.311e-05,
        "meta_mean_motion_ddot": 0,
        "tle_line1": "1 35018U 93036AGF 25344.62643532  .00001311  00000+0  10454-2 0  9998",
        "tle_line2": "2 35018  73.9756 113.4623 0348495  23.1067 338.5295 13.67108377831570"
      },
      "geometry": {
        "type": "Point",
        "coordinates": [
          73.74126829782237,
          -65.57764109143005
        ]
      }
    },
    {
      "type": "Feature",
      "properties": {
        "norad_id": 35020,
        "name": "COSMOS 2251 DEB",
        "group": "cosmos-2251-debris",
        "lat": 17.169738075690738,
        "lon": -152.46576210457238,
        "alt_km": 652.5593252814851,
        "timestamp": "2025-12-10T21:43:22.486886+00:00",
        "meta_object_name": "COSMOS 2251 DEB",
        "meta_object_id": "1993-036AGH",
        "meta_epoch": "2025-12-10T06:52:12.458784",
        "meta_mean_motion": 14.62799167,
        "meta_eccentricity": 0.009124,
        "meta_inclination": 74.0472,
        "meta_ra_of_asc_node": 203.6489,
        "meta_arg_of_pericenter": 318.3933,
        "meta_mean_anomaly": 41.0314,
        "meta_ephemeris_type": 0,
        "meta_classification_type": "U",
        "meta_norad_cat_id": 35020,
        "meta_element_set_no": 999,
        "meta_rev_at_epoch": 88202,
        "meta_bstar": 0.00022844,
        "meta_mean_motion_dot": 1.204e-05,
        "meta_mean_motion_ddot": 0,
        "tle_line1": "1 35020U 93036AGH 25344.28625531  .00001204  00000+0  22844-3 0  9990",
        "tle_line2": "2 35020  74.0472 203.6489 0091240 318.3933  41.0314 14.62799167882029"
      },
      "geometry": {
        "type": "Point",
        "coordinates": [
          -152.46576210457238,
          17.169738075690738
        ]
      }
    }
  ]
}